{"type": "FeatureCollection", "features": [ {"type": "Feature", "properties": {"norad_id": 41836, "name": "HIMAWARI-9", "group": "weather", "lat": 0.014414679430773857, "lon": 13.995276821871254, "alt_km": 35781.425567045175, "timestamp": "2025-12-20T09:36:01.274040+00:00", "meta": {"OBJECT_NAME": "HIMAWARI-9", "OBJECT_ID": "2016-064A", "EPOCH": "2025-12-19T21:38:38.658912", "MEAN_MOTION": 1.00273489, "ECCENTRICITY": 0.0001396, "INCLINATION": 0.0182, "RA_OF_ASC_NODE": 355.7972, "ARG_OF_PERICENTER": 334.5859, "MEAN_ANOMALY": 223.7728, "EPHEMERIS_TYPE": 0, "CLASSIFICATION_TYPE": "U", "NORAD_CAT_ID": 41836, "ELEMENT_SET_NO": 999, "REV_AT_EPOCH": 3341, "BSTAR": 0, "MEAN_MOTION_DOT": 0, "MEAN_MOTION_DDOT": 0}, "tle": {"line1": "1 41836U 16064A   25353.90183633  .00000000  00000+0  00000+0 0  9998", "line2": "2 41836   0.0182 355.7972 0001396 334.5859 223.7728  1.00273489 33415"}}, "geometry": {"type": "Point", "coordinates": [13.995276821871254, 0.014414679430773857]}}, {"type": "Feature", "properties": {"norad_id": 41866, "name": "GOES 16", "group": "weather", "lat": 0.05121838592002687, "lon": 128.53709536226873, "alt_km": 35795.34898429074, "timestamp": "2025-12-20T09:36:01.274053+00:00", "meta": {"OBJECT_NAME": "GOES 16", "OBJECT_ID": "2016-071A", "EPOCH": "2025-12-20T04:29:38.798304", "MEAN_MOTION": 1.00272178, "ECCENTRICITY": 0.0003022, "INCLINATION": 0.0741, "RA_OF_ASC_NODE": 102.6186, "ARG_OF_PERICENTER": 162.9748, "MEAN_ANOMALY": 146.1734, "EPHEMERIS_TYPE": 0, "CLASSIFICATION_TYPE": "U", "NORAD_CAT_ID": 41866, "ELEMENT_SET_NO": 999, "REV_AT_EPOCH": 3330, "BSTAR": 0, "MEAN_MOTION_DOT": -6.7e-07, "MEAN_MOTION_DDOT": 0}, "tle": {"line1": "1 41866U 16071A   25354.18725461 -.00000067  00000+0  00000+0 0  9995", "line2": "2 41866   0.0741 102.6186 0003022 162.9748 146.1734  1.00272178 33300"}}, "geometry": {"type": "Point", "coordinates": [128.53709536226873, 0.05121838592002687]}}, {"type": "Feature", "properties": {"norad_id": 41882, "name": "FENGYUN 4A", "group": "weather", "lat": -1.8628640200010742, "lon": -2.9940058719492453, "alt_km": 35800.49496822891, "timestamp": "2025-12-20T09:36:01.274065+00:00", "meta": {"OBJECT_NAME": "FENGYUN 4A", "OBJECT_ID": "2016-077A", "EPOCH": "2025-12-19T13:51:06.687072", "MEAN_MOTION": 1.00266581, "ECCENTRICITY": 0.0004506, "INCLINATION": 1.866, "RA_OF_ASC_NODE": 82.3247, "ARG_OF_PERICENTER": 142.8816, "MEAN_ANOMALY": 194.7423, "EPHEMERIS_TYPE": 0, "CLASSIFICATION_TYPE": "U", "NORAD_CAT_ID": 41882, "ELEMENT_SET_NO": 999, "REV_AT_EPOCH": 3312, "BSTAR": 0, "MEAN_MOTION_DOT": -3.34e-06, "MEAN_MOTION_DDOT": 0}, "tle": {"line1": "1 41882U 16077A   25353.57716073 -.00000334  00000+0  00000+0 0  9997", "line2": "2 41882   1.8660  82.3247 0004506 142.8816 194.7423  1.00266581 33125"}}, "geometry": {"type": "Point", "coordinates": [-2.9940058719492453, -1.8628640200010742]}}, {"type": "Feature", "properties": {"norad_id": 41884, "name": "CYGFM05", "group": "weather", "lat": -34.60881727365445, "lon": -83.9179766504595, "alt_km": 418.41845877249125, "timestamp": "2025-12-20T09:36:01.274076+00:00", "meta": {"OBJECT_NAME": "CYGFM05", "OBJECT_ID": "2016-078A", "EPOCH": "2025-12-20T03:45:50.467968", "MEAN_MOTION": 15.47895745, "ECCENTRICITY": 0.0010775, "INCLINATION": 34.9605, "RA_OF_ASC_NODE": 358.6716, "ARG_OF_PERICENTER": 248.3091, "MEAN_ANOMALY": 111.6484, "EPHEMERIS_TYPE": 0, "CLASSIFICATION_TYPE": "U", "NORAD_CAT_ID": 41884, "ELEMENT_SET_NO": 999, "REV_AT_EPOCH": 50091, "BSTAR": 0.00026219, "MEAN_MOTION_DOT": 0.00014083, "MEAN_MOTION_DDOT": 0}, "tle": {"line1": "1 41884U 16078A   25354.15683412  .00014083  00000+0  26219-3 0  9994", "line2": "2 41884  34.9605 358.6716 0010775 248.3091 111.6484 15.47895745500912"}}, "geometry": {"type": "Point", "coordinates": [-83.9179766504595, -34.60881727365445]}}, {"type": "Feature", "properties": {"norad_id": 41885, "name": "CYGFM04", "group": "weather", "lat": -27.058168880927962, "lon": -161.3284918422946, "alt_km": 411.5791177644005, "timestamp": "2025-12-20T09:36:01.274101+00:00", "meta": {"OBJECT_NAME": "CYGFM04", "OBJECT_ID": "2016-078B", "EPOCH": "2025-12-20T03:57:58.569408", "MEAN_MOTION": 15.50656418, "ECCENTRICITY": 0.0009722, "INCLINATION": 34.9357, "RA_OF_ASC_NODE": 333.1771, "ARG_OF_PERICENTER": 273.4393, "MEAN_ANOMALY": 86.5217, "EPHEMERIS_TYPE": 0, "CLASSIFICATION_TYPE": "U", "NORAD_CAT_ID": 41885, "ELEMENT_SET_NO": 999, "REV_AT_EPOCH": 50109, "BSTAR": 0.00027749, "MEAN_MOTION_DOT": 0.00016438, "MEAN_MOTION_DDOT": 0}, "tle": {"line1": "1 41885U 16078B   25354.16526122  .00016438  00000+0  27749-3 0  9995", "line2": "2 41885  34.9357 333.1771 0009722 273.4393  86.5217 15.50656418501090"}}, "geometry": {"type": "Point", "coordinates": [-161.3284918422946, -27.058168880927962]}}, {"type": "Feature", "properties": {"norad_id": 41886, "name": "CYGFM02", "group": "weather", "lat": -33.71435805064919, "lon": -103.00471726134262, "alt_km": 405.0771137662705, "timestamp": "2025-12-20T09:36:01.274113+00:00", "meta": {"OBJECT_NAME": "CYGFM02", "OBJECT_ID": "2016-078C", "EPOCH": "2025-12-20T03:45:01.241568", "MEAN_MOTION": 15.5205781, "ECCENTRICITY": 0.0011393, "INCLINATION": 34.9445, "RA_OF_ASC_NODE": 331.4657, "ARG_OF_PERICENTER": 273.8915, "MEAN_ANOMALY": 86.0505, "EPHEMERIS_TYPE": 0, "CLASSIFICATION_TYPE": "U", "NORAD_CAT_ID": 41886, "ELEMENT_SET_NO": 999, "REV_AT_EPOCH": 50122, "BSTAR": 0.00028943, "MEAN_MOTION_DOT": 0.00018051, "MEAN_MOTION_DDOT": 0}, "tle": {"line1": "1 41886U 16078C   25354.15626437  .00018051  00000+0  28943-3 0  9995", "line2": "2 41886  34.9445 331.4657 0011393 273.8915  86.0505 15.52057810501227"}}, "geometry": {"type": "Point", "coordinates": [-103.00471726134262, -33.71435805064919]}}, {"type": "Feature", "properties": {"norad_id": 41887, "name": "CYGFM01", "group": "weather", "lat": -12.485047029172305, "lon": -19.110546816231395, "alt_km": 422.0436921913961, "timestamp": "2025-12-20T09:36:01.274124+00:00", "meta": {"OBJECT_NAME": "CYGFM01", "OBJECT_ID": "2016-078D", "EPOCH": "2025-12-20T01:57:33.639840", "MEAN_MOTION": 15.4848052, "ECCENTRICITY": 0.0010447, "INCLINATION": 34.9436, "RA_OF_ASC_NODE": 1.4605, "ARG_OF_PERICENTER": 240.4041, "MEAN_ANOMALY": 119.564, "EPHEMERIS_TYPE": 0, "CLASSIFICATION_TYPE": "U", "NORAD_CAT_ID": 41887, "ELEMENT_SET_NO": 999, "REV_AT_EPOCH": 50084, "BSTAR": 0.00026887, "MEAN_MOTION_DOT": 0.00014743, "MEAN_MOTION_DDOT": 0}, "tle": {"line1": "1 41887U 16078D   25354.08163935  .00014743  00000+0  26887-3 0  9996", "line2": "2 41887  34.9436   1.4605 0010447 240.4041 119.5640 15.48480520500846"}}, "geometry": {"type": "Point", "coordinates": [-19.110546816231395, -12.485047029172305]}}, {"type": "Feature", "properties": {"norad_id": 41888, "name": "CYGFM08", "group": "weather", "lat": 29.664303130101064, "lon": 36.927802958152036, "alt_km": 419.25863948301685, "timestamp": "2025-12-20T09:36:01.274135+00:00", "meta": {"OBJECT_NAME": "CYGFM08", "OBJECT_ID": "2016-078E", "EPOCH": "2025-12-20T03:09:32.565024", "MEAN_MOTION": 15.49706675, "ECCENTRICITY": 0.0011975, "INCLINATION": 34.9468, "RA_OF_ASC_NODE": 344.0385, "ARG_OF_PERICENTER": 263.4057, "MEAN_ANOMALY": 96.5302, "EPHEMERIS_TYPE": 0, "CLASSIFICATION_TYPE": "U", "NORAD_CAT_ID": 41888, "ELEMENT_SET_NO": 999, "REV_AT_EPOCH": 50108, "BSTAR": 0.00027627, "MEAN_MOTION_DOT": 0.00015835, "MEAN_MOTION_DDOT": 0}, "tle": {"line1": "1 41888U 16078E   25354.13162691  .00015835  00000+0  27627-3 0  9997", "line2": "2 41888  34.9468 344.0385 0011975 263.4057  96.5302 15.49706675501081"}}, "geometry": {"type": "Point", "coordinates": [36.927802958152036, 29.664303130101064]}}, {"type": "Feature", "properties": {"norad_id": 41890, "name": "CYGFM07", "group": "weather", "lat": 30.89955152007533, "lon": 30.194570816156606, "alt_km": 415.4893640750006, "timestamp": "2025-12-20T09:36:01.274146+00:00", "meta": {"OBJECT_NAME": "CYGFM07", "OBJECT_ID": "2016-078G", "EPOCH": "2025-12-20T03:08:41.104320", "MEAN_MOTION": 15.50296161, "ECCENTRICITY": 0.0010083, "INCLINATION": 34.9484, "RA_OF_ASC_NODE": 332.9812, "ARG_OF_PERICENTER": 278.3456, "MEAN_ANOMALY": 81.6123, "EPHEMERIS_TYPE": 0, "CLASSIFICATION_TYPE": "U", "NORAD_CAT_ID": 41890, "ELEMENT_SET_NO": 999, "REV_AT_EPOCH": 50110, "BSTAR": 0.0002844, "MEAN_MOTION_DOT": 0.00016635, "MEAN_MOTION_DDOT": 0}, "tle": {"line1": "1 41890U 16078G   25354.13103130  .00016635  00000+0  28440-3 0  9996", "line2": "2 41890  34.9484 332.9812 0010083 278.3456  81.6123 15.50296161501105"}}, "geometry": {"type": "Point", "coordinates": [30.194570816156606, 30.89955152007533]}}, {"type": "Feature", "properties": {"norad_id": 41891, "name": "CYGFM03", "group": "weather", "lat": -33.67894073900718, "lon": -134.23471811929988, "alt_km": 411.7788167480094, "timestamp": "2025-12-20T09:36:01.274156+00:00", "meta": {"OBJECT_NAME": "CYGFM03", "OBJECT_ID": "2016-078H", "EPOCH": "2025-12-20T03:51:57.686976", "MEAN_MOTION": 15.50193117, "ECCENTRICITY": 0.0009675, "INCLINATION": 34.9438, "RA_OF_ASC_NODE": 334.7075, "ARG_OF_PERICENTER": 266.431, "MEAN_ANOMALY": 93.5306, "EPHEMERIS_TYPE": 0, "CLASSIFICATION_TYPE": "U", "NORAD_CAT_ID": 41891, "ELEMENT_SET_NO": 999, "REV_AT_EPOCH": 50108, "BSTAR": 0.00027404, "MEAN_MOTION_DOT": 0.00015965, "MEAN_MOTION_DDOT": 0}, "tle": {"line1": "1 41891U 16078H   25354.16108434  .00015965  00000+0  27404-3 0  9996", "line2": "2 41891  34.9438 334.7075 0009675 266.4310  93.5306 15.50193117501087"}}, "geometry": {"type": "Point", "coordinates": [-134.23471811929988, -33.67894073900718]}}]}